[{"OBJECT_NAME":"STARLINK-31202","OBJECT_ID":"2024-038V","EPOCH":"2026-03-09T05:25:10.529184","MEAN_MOTION":15.27581543,"ECCENTRICITY":0.00011255,"INCLINATION":43.0011,"RA_OF_ASC_NODE":25.6466,"ARG_OF_PERICENTER":255.0733,"MEAN_ANOMALY":104.9994,"EPHEMERIS_TYPE":0,"CLASSIFICATION_TYPE":"U","NORAD_CAT_ID":59042,"ELEMENT_SET_NO":999,"REV_AT_EPOCH":11479,"BSTAR":-5.5995255e-5,"MEAN_MOTION_DOT":-1.803e-5,"MEAN_MOTION_DDOT":0},{"OBJECT_NAME":"CZ-2C R\/B","OBJECT_ID":"2024-218A","EPOCH":"2026-03-09T22:16:31.791072","MEAN_MOTION":15.22960743,"ECCENTRICITY":0.00453409,"INCLINATION":97.5416,"RA_OF_ASC_NODE":83.973,"ARG_OF_PERICENTER":359.5317,"MEAN_ANOMALY":0.5869,"EPHEMERIS_TYPE":0,"CLASSIFICATION_TYPE":"U","NORAD_CAT_ID":62078,"ELEMENT_SET_NO":999,"REV_AT_EPOCH":7134,"BSTAR":0.00039378379,"MEAN_MOTION_DOT":9.445e-5,"MEAN_MOTION_DDOT":0}]
